     2.100          NAVIGATION                              RINEX VERSION / TYPE
fic2rin                                 01/27/2009 01:41:23 PGM / RUN BY / DATE
                                                            END OF HEADER
17 09  1 26 14  0  0.0  .452445819974D-04  .909494701773D-12  .000000000000D+00
     .390000000000D+02  .312500000000D+01  .450483050142D-08 -.190075873281D+01
     .284984707832D-06  .416389945894D-02  .100452452898D-04  .515363592911D+04
     .136800000000D+06  .745058059692D-07  .703570329248D+00 -.447034835815D-07
     .959773453160D+00  .185062500000D+03 -.276196615372D+01 -.783282626865D-08
     .601810782120D-09  .100000000000D+01  .151600000000D+04  .000000000000D+00
     .240000000000D+01  .000000000000D+00 -.102445483208D-07  .390000000000D+02
     .129606000000D+06  .400000000000D+01
19 09  1 26 14  0  0.0  .333413481712D-04 -.454747350886D-12  .000000000000D+00
     .820000000000D+02  .198437500000D+02  .466626579727D-08 -.264252976495D+01
     .108964741230D-05  .508784397971D-02  .985898077488D-05  .515377739143D+04
     .136800000000D+06 -.819563865662D-07  .759965193612D+00  .987201929092D-07
     .957456044630D+00  .187531250000D+03 -.392499636225D+00 -.787068498848D-08
     .590381734626D-09  .100000000000D+01  .151600000000D+04  .000000000000D+00
     .340000000000D+01  .000000000000D+00 -.144354999065D-07  .820000000000D+02
     .129606000000D+06  .400000000000D+01
20 09  1 26 14  0  0.0  .925855711102D-04 -.113686837722D-11  .000000000000D+00
     .420000000000D+02  .343750000000D+01  .476984154019D-08 -.542286999127D+00
     .139698386192D-06  .389066629577D-02  .103805214167D-04  .515369124794D+04
     .136800000000D+06 -.931322574615D-08  .276101399886D+01  .316649675369D-07
     .943911187495D+00  .170218750000D+03  .130853121561D+01 -.807962226298D-08
    -.586095841816D-09  .100000000000D+01  .151600000000D+04  .000000000000D+00
     .240000000000D+01  .000000000000D+00 -.651925802231D-08  .420000000000D+02
     .129606000000D+06  .400000000000D+01
21 09  1 26 14  0  0.0  .320649705827D-04 -.181898940355D-11  .000000000000D+00
     .300000000000D+02 -.246875000000D+01  .564380651577D-08  .580014230047D+00
     .335276126862D-07  .145771586103D-01  .405497848988D-05  .515363941765D+04
     .136800000000D+06 -.372529029846D-08  .175619693670D+01  .206753611565D-06
     .934186903309D+00  .284437500000D+03 -.265167280692D+01 -.878786604989D-08
    -.254653464482D-09  .100000000000D+01  .151600000000D+04  .000000000000D+00
     .240000000000D+01  .000000000000D+00 -.116415321827D-07  .300000000000D+02
     .129606000000D+06  .400000000000D+01
24 09  1 26 14  0  0.0  .160580500960D-03  .295585778076D-11  .000000000000D+00
     .180000000000D+02 -.105000000000D+02  .525343311229D-08 -.798276519444D+00
    -.549480319023D-06  .699543743394D-02  .450015068054D-05  .515366019630D+04
     .136800000000D+06 -.186264514923D-08  .178629199233D+01 -.800937414169D-07
     .950834754518D+00  .288312500000D+03 -.639947411944D+00 -.850178270480D-08
    -.721458623076D-10  .100000000000D+01  .151600000000D+04  .000000000000D+00
     .240000000000D+01  .000000000000D+00 -.139698386192D-08  .180000000000D+02
     .129606000000D+06  .400000000000D+01
25 09  1 26 14  0  0.0  .200432725251D-03  .256932253251D-10  .000000000000D+00
     .410000000000D+02  .790625000000D+01  .477519890620D-08 -.271549817746D+00
     .378116965294D-06  .117961891228D-01  .769272446632D-06  .515367115593D+04
     .136800000000D+06 -.208616256714D-06 -.150083651651D+01 -.707805156708D-07
     .967803416348D+00  .369437500000D+03 -.123418452508D+01 -.868393314924D-08
     .135362781260D-09  .100000000000D+01  .151600000000D+04  .000000000000D+00
     .240000000000D+01  .000000000000D+00 -.745058059692D-08  .410000000000D+02
     .129606000000D+06  .400000000000D+01
26 09  1 26 14  0  0.0  .395351089537D-04  .329691829393D-11  .000000000000D+00
     .500000000000D+02  .125531250000D+03  .351264631582D-08  .265274701157D+01
     .631809234619D-05  .194974314654D-01  .813230872154D-05  .515364365959D+04
     .136800000000D+06  .614672899246D-07 -.240175994255D+01 -.251457095146D-06
     .993259280802D+00  .237687500000D+03  .966728764042D+00 -.734102006867D-08
     .338585532018D-09  .100000000000D+01  .151600000000D+04  .000000000000D+00
     .240000000000D+01  .000000000000D+00 -.605359673500D-08  .500000000000D+02
     .129606000000D+06  .400000000000D+01
27 09  1 26 14  0  0.0  .195000320673D-04  .329691829393D-11  .000000000000D+00
     .108000000000D+03  .111562500000D+02  .465269380337D-08 -.108669298096D+01
     .109337270260D-05  .210825576214D-01  .124983489513D-05  .515518554878D+04
     .136800000000D+06 -.260770320892D-06 -.146499971660D+01  .441446900368D-06
     .972459254077D+00  .365406250000D+03 -.165693733059D+01 -.863285959325D-08
     .113219001740D-09  .100000000000D+01  .151600000000D+04  .000000000000D+00
     .240000000000D+01  .000000000000D+00 -.465661287308D-08  .108000000000D+03
     .129606000000D+06  .400000000000D+01
28 09  1 26 14  0  0.0 -.236970372498D-04  .000000000000D+00  .000000000000D+00
     .340000000000D+02 -.123593750000D+03  .420553232016D-08 -.148294157883D+01
    -.626407563686D-05  .145986402640D-01  .859238207340D-05  .515364570045D+04
     .136800000000D+06  .340864062309D-06 -.329460916238D+00  .158324837685D-06
     .966020435200D+00  .211687500000D+03 -.206248011327D+01 -.779746765297D-08
    -.141791620476D-09  .100000000000D+01  .151600000000D+04  .000000000000D+00
     .240000000000D+01  .000000000000D+00 -.102445483208D-07  .340000000000D+02
     .129606000000D+06  .400000000000D+01
29 09  1 26 14  0  0.0 -.152252614498D-04  .306954461848D-11  .000000000000D+00
     .500000000000D+01  .135937500000D+02  .460304887832D-08  .639465468212D+00
     .713393092155D-06  .324200280011D-02  .998377799988D-05  .515375289917D+04
     .136800000000D+06 -.502914190292D-07  .711752734353D+00 -.484287738800D-07
     .959949630921D+00  .190968750000D+03 -.134448951232D+01 -.798604693662D-08
     .542522598244D-09  .100000000000D+01  .151600000000D+04  .000000000000D+00
     .240000000000D+01  .000000000000D+00 -.884756445885D-08  .500000000000D+01
     .129606000000D+06  .400000000000D+01
30 09  1 26 14  0  0.0  .122254248708D-03  .238742359215D-11  .000000000000D+00
     .103000000000D+03 -.114781250000D+03  .468626663039D-08 -.105783103799D+01
    -.588968396187D-05  .111606129212D-01  .824779272079D-05  .515365625381D+04
     .136800000000D+06 -.124797224998D-06 -.400342887180D+00  .221654772758D-06
     .951233383603D+00  .219000000000D+03  .141496443216D+01 -.825212944860D-08
    -.197865384745D-09  .100000000000D+01  .151600000000D+04  .000000000000D+00
     .340000000000D+01  .000000000000D+00 -.791624188423D-08  .103000000000D+03
     .129606000000D+06  .400000000000D+01
31 09  1 26 14  0  0.0 -.491752289236D-04 -.147792889038D-11  .000000000000D+00
     .790000000000D+02 -.196250000000D+02  .455518974194D-08  .143697252493D+01
    -.108033418655D-05  .716378737707D-02  .536441802979D-06  .515362797928D+04
     .136800000000D+06  .108033418655D-06 -.140874634860D+01 -.184401869774D-06
     .970885566767D+00  .371593750000D+03 -.120279679114D+01 -.836570560807D-08
     .107147320259D-10  .100000000000D+01  .151600000000D+04  .000000000000D+00
     .485000000000D+01  .000000000000D+00 -.130385160446D-07  .790000000000D+02
     .129606000000D+06  .400000000000D+01
32 09  1 26 14  0  0.0  .300645362586D-03 -.295585778076D-11  .000000000000D+00
     .840000000000D+02  .209375000000D+02  .407802700905D-08  .228844818175D+01
     .102072954178D-05  .136116740759D-01  .109747052193D-04  .515365313911D+04
     .136800000000D+06  .191852450371D-06  .286793729589D+01  .242143869400D-07
     .965978325103D+00  .166218750000D+03 -.120636659214D+01 -.745745349001D-08
    -.630740558590D-09  .100000000000D+01  .151600000000D+04  .000000000000D+00
     .340000000000D+01  .000000000000D+00 -.325962901115D-08  .840000000000D+02
     .129606000000D+06  .400000000000D+01
22 09  1 26 15  0  0.0  .206095632166D-03 -.682121026330D-12  .000000000000D+00
     .980000000000D+02  .593750000000D+00  .472091093060D-08 -.130329667529D+01
    -.577419996262D-07  .492021895479D-02  .105146318674D-04  .515367001343D+04
     .140400000000D+06  .260770320892D-07  .282067140461D+01  .298023223877D-06
     .942015865942D+00  .167500000000D+03 -.181679877310D+01 -.804354933183D-08
    -.615739933754D-09  .100000000000D+01  .151600000000D+04  .000000000000D+00
     .685000000000D+01  .000000000000D+00 -.181607902050D-07  .980000000000D+02
     .129606000000D+06  .600000000000D+01
19 09  1 26 13 59 44.0  .333404168487D-04 -.454747350886D-12  .000000000000D+00
     .120000000000D+02  .198437500000D+02  .466626579727D-08 -.264486348502D+01
     .108964741230D-05  .508784409612D-02  .985898077488D-05  .515377739525D+04
     .136784000000D+06 -.819563865662D-07  .759965304794D+00  .987201929092D-07
     .957456025612D+00  .187531250000D+03 -.392499571857D+00 -.787068498848D-08
     .590381734626D-09  .100000000000D+01  .151600000000D+04  .000000000000D+00
     .240000000000D+01  .000000000000D+00 -.144354999065D-07  .120000000000D+02
     .131706000000D+06  .400000000000D+01
22 09  1 26 13 59 44.0  .206094235182D-03 -.682121026330D-12  .000000000000D+00
     .280000000000D+02  .606250000000D+01  .466055127352D-08 -.183086702867D+01
     .230967998505D-06  .492038764060D-02  .107176601887D-04  .515366873360D+04
     .136784000000D+06  .167638063431D-06  .282069998271D+01  .540167093277D-07
     .942018553322D+00  .163687500000D+03 -.181665422216D+01 -.790782939284D-08
    -.574309636587D-09  .100000000000D+01  .151600000000D+04  .000000000000D+00
     .240000000000D+01  .000000000000D+00 -.181607902050D-07  .280000000000D+02
     .135456000000D+06  .400000000000D+01
